INTELSAT 9 (IS-9)       
1 26451U 00043A   25164.61099848  .00000124  00000+0  00000+0 0  9993
2 26451   9.5734  52.5330 0000179 107.2074  10.8282  0.99551814 91153
INTELSAT 10 (IS-10)     
1 26766U 01019A   25163.88839918  .00000002  00000+0  00000+0 0  9999
2 26766   8.1892  63.0245 0003956   3.5418 220.7941  1.00272435 41915
INTELSAT 902 (IS-902)   
1 26900U 01039A   25164.26435749 -.00000270  00000+0  00000+0 0  9996
2 26900   5.1846  76.3066 0004370   1.5723 229.0066  1.00269947 86998
INTELSAT 904 (IS-904)   
1 27380U 02007A   25164.56956042 -.00000196  00000+0  00000+0 0  9999
2 27380   5.9958  73.6159 0002977   9.0677 355.3397  1.00311549 48071
DIRECTV 5 (TEMPO 1)     
1 27426U 02023A   25164.29703179 -.00000043  00000+0  00000+0 0  9990
2 27426   3.9328  79.9558 0003572  10.3343 168.3800  1.00271566 84424
INTELSAT 905 (IS-905)   
1 27438U 02027A   25162.48208914  .00000109  00000+0  00000+0 0  9995
2 27438   5.8193  74.2753 0002798   2.1293 220.0282  1.00274638 84248
GALAXY 3C (G-3C)        
1 27445U 02030A   25164.42627800 -.00000138  00000+0  00000+0 0  9995
2 27445   2.7819  82.6506 0003462  39.3992 198.5529  1.00273388 42791
INTELSAT 906 (IS-906)   
1 27513U 02041A   25163.89029023  .00000026  00000+0  00000+0 0  9991
2 27513   4.8636  77.4961 0003907   5.3920 203.2118  1.00271590 83327
GALAXY 23 (G-23)        
1 27854U 03034A   25164.48933551  .00000106  00000+0  00000+0 0  9997
2 27854   2.2442  84.2862 0001509 104.8863 118.9622  0.99973346 80048
GALAXY 13 (HORIZONS-1)  
1 27954U 03044A   25164.56503140  .00000148  00000+0  00000+0 0  9991
2 27954   0.4658  89.6959 0001965 346.8827 238.9440  1.00272666 42878
INTELSAT 10-02          
1 28358U 04022A   25164.53683149  .00000004  00000+0  00000+0 0  9993
2 28358   0.0166 351.4417 0000797  84.3027  18.6365  1.00270260 76867
XM-3 (RHYTHM)           
1 28626U 05008A   25164.43403601 -.00000183  00000+0  00000+0 0  9997
2 28626   0.0372 116.3286 0000565 174.5846  40.9841  1.00269453 38924
DIRECTV 8               
1 28659U 05019A   25164.54142148  .00000017  00000+0  00000+0 0  9998
2 28659   0.0193  56.9294 0003239  31.0674 249.9707  1.00271246 73379
GALAXY 28 (G-28)        
1 28702U 05022A   25164.52489185 -.00000172  00000+0  00000+0 0  9997
2 28702   2.3492  83.5670 0001984  22.2723 256.4945  1.00270077 48281
GALAXY 16 (G-16)        
1 29236U 06023A   25164.53655995 -.00000111  00000+0  00000+0 0  9990
2 29236   0.0092  89.9454 0002922 351.8972 274.4143  1.00271498 69275
DIRECTV 9S              
1 29494U 06043A   25164.53655995 -.00000098  00000+0  00000+0 0  9992
2 29494   1.4679  85.4933 0003230 358.9084 269.6583  1.00271309 47681
GALAXY 17 (G-17)        
1 31307U 07016B   25164.52544741 -.00000191  00000+0  00000+0 0  9998
2 31307   2.0378  84.6684 0002469  21.3818 260.1911  1.00270287 66106
DIRECTV 10              
1 31862U 07032A   25163.99626164 -.00000087  00000+0  00000+0 0  9996
2 31862   0.0105 282.3397 0000439 247.2745 347.8044  1.00272432 41892
INTELSAT 11 (IS-11)     
1 32253U 07044B   25164.30877905 -.00000185  00000+0  00000+0 0  9990
2 32253   2.6033  83.2802 0003241  58.4809 179.3834  0.99047822 64790
HORIZONS-2              
1 32388U 07063B   25164.45902686 -.00000238  00000+0  00000+0 0  9990
2 32388   1.6492  85.2962 0002386  12.0155 256.1480  1.00269685 64118
DIRECTV 11              
1 32729U 08013A   25164.53655995 -.00000111  00000+0  00000+0 0  9992
2 32729   0.0176 163.6016 0000117 306.5901 245.8839  1.00275844 41897
GALAXY 18 (G-18)        
1 32951U 08024A   25164.55253160  .00000041  00000+0  00000+0 0  9992
2 32951   0.0145  50.5931 0003408  38.4956 248.9244  1.00271045 42150
INTELSAT 25 (IS-25)     
1 33153U 08034A   25164.57156299 -.00000209  00000+0  00000+0 0  9992
2 33153   1.7563  84.9552 0003418   8.4478 342.9990  1.00273694 61947
GALAXY 19 (G-19)        
1 33376U 08045A   25164.53655995 -.00000124  00000+0  00000+0 0  9990
2 33376   0.0186  23.5352 0003081  63.3275 271.4015  1.00271319 61200
FM-5                    
1 35493U 09034A   25164.53100506 -.00000185  00000+0  00000+0 0  9991
2 35493   0.0129 317.3484 0000595  55.2699 354.4884  1.00271175 42942
INTELSAT 14 (IS-14)     
1 36097U 09064A   25164.50530765 -.00000258  00000+0  00000+0 0  9997
2 36097   0.0135  30.3391 0002618  59.3963 309.2485  1.00272184 56903
INTELSAT 15 (IS-15)     
1 36106U 09067A   25164.60530575 -.00000170  00000+0  00000+0 0  9994
2 36106   0.0176 339.3816 0002245 103.5712 122.2719  1.00271774 37538
DIRECTV 12              
1 36131U 09075A   25163.99626164 -.00000087  00000+0  00000+0 0  9999
2 36131   0.0116  90.7818 0000499   1.0003  65.7230  1.00271370 42856
INTELSAT 16 (IS-16)     
1 36397U 10006A   25164.28211381 -.00000229  00000+0  00000+0 0  9991
2 36397   0.0102 359.9697 0002284  90.3400 196.8914  1.00272639 55955
XM-5                    
1 37185U 10053A   25164.45947709 -.00000007  00000+0  00000+0 0  9992
2 37185   0.0378 281.7021 0000438  97.4981 293.0393  1.00271040 53785
INTELSAT 17 (IS-17)     
1 37238U 10065B   25164.63746471  .00000013  00000+0  00000+0 0  9993
2 37238   0.0269  62.2573 0002679  46.7163  88.6858  1.00271324 49554
INTELSAT 28 (IS-28)     
1 37392U 11016A   25164.57156299 -.00000210  00000+0  00000+0 0  9997
2 37392   0.8522  87.5521 0004139 350.7748 357.8856  1.00271348 49586
INTELSAT 18 (IS-18)     
1 37834U 11056A   25164.55705861  .00000068  00000+0  00000+0 0  9995
2 37834   0.0222   7.6418 0002061  82.7613 192.2521  1.00270115 50111
INTELSAT 22 (IS-22)     
1 38098U 12011A   25164.46433659 -.00000043  00000+0  00000+0 0  9997
2 38098   0.0332  49.0918 0001424  35.1080  57.0712  1.00270082  3495
INTELSAT 19 (IS-19)     
1 38356U 12030A   25164.53517138 -.00000041  00000+0  00000+0 0  9996
2 38356   0.0178   0.3375 0003240  84.9964 175.4323  1.00271187 46754
INTELSAT 20 (IS-20)     
1 38740U 12043A   25164.62607815 -.00000009  00000+0  00000+0 0  9993
2 38740   0.0090  90.3603 0001122  97.1909   8.5137  1.00270604 47055
INTELSAT 21 (IS-21)     
1 38749U 12045A   25163.87586530 -.00000268  00000+0  00000+0 0  9997
2 38749   0.0278 284.9698 0002014 173.0874  60.6986  1.00269216 46937
INTELSAT 23 (IS-23)     
1 38867U 12057A   25164.20600216 -.00000269  00000+0  00000+0 0  9998
2 38867   0.0425 117.6287 0002777 279.1188 246.1645  1.00265587 46255
FM-6                    
1 39360U 13058A   25164.45947709 -.00000001  00000+0  00000+0 0  9991
2 39360   0.0331  57.1913 0001976 108.1740 145.8996  1.00272349 42365
INTELSAT 30 (IS-30)     
1 40271U 14062A   25163.98855316 -.00000134  00000+0  00000+0 0  9996
2 40271   0.0158  28.2931 0001213  12.6326 121.4464  1.00271891  3084
DIRECTV 14              
1 40333U 14078B   25164.52186265 -.00000110  00000+0  00000+0 0  9997
2 40333   0.0126 333.2971 0000578 168.6254 208.8162  1.00270094 38342
DIRECTV 15              
1 40663U 15026A   25164.49558556 -.00000087  00000+0  00000+0 0  9992
2 40663   0.0186  21.6619 0000994 134.9920 180.9573  1.00268543 36765
SKY MEXICO-1            
1 40664U 15026B   25164.28335919 -.00000219  00000+0  00000+0 0  9993
2 40664   0.0102 354.2474 0002275  89.6437 201.2063  1.00272161 36752
INTELSAT 34 (IS-34)     
1 40874U 15039A   25164.38872039 -.00000270  00000+0  00000+0 0  9997
2 40874   0.0152 319.3251 0001530   5.1366  21.9184  1.00260689 35923
INTELSAT 31 (IS-31)     
1 41581U 16035A   25164.30114230 -.00000134  00000+0  00000+0 0  9993
2 41581   0.0153 348.2692 0001930 248.2417  38.6916  1.00268194 32981
INTELSAT 36 (IS-36)     
1 41747U 16053A   25163.91499678 -.00000009  00000+0  00000+0 0  9996
2 41747   0.0107   6.4857 0001502 336.3069 316.5905  1.00272154 32243
INTELSAT 32E (IS-32E)   
1 41945U 17007B   25164.20461354 -.00000253  00000+0  00000+0 0  9990
2 41945   0.0187  56.9206 0000708 302.6244 292.7031  1.00270927 30527
INTELSAT 35E (IS-35E)   
1 42818U 17041A   25164.57280962 -.00000223  00000+0  00000+0 0  9999
2 42818   0.0228 283.0490 0002290 162.1810 348.6291  1.00271429 29117
INTELSAT 37E (IS-37E)   
1 42950U 17059A   25164.55441397 -.00000125  00000+0  00000+0 0  9995
2 42950   0.0162  23.4655 0002669  77.5769 342.6665  1.00271629 28370
AZERSPACE 2 (IS-38)     
1 43632U 18074A   25163.90850530  .00000153  00000+0  00000+0 0  9992
2 43632   0.0229   3.5346 0001723  95.1429 174.9636  1.00270978 24744
HORIZONS-3E             
1 43633U 18074B   25164.53517138 -.00000015  00000+0  00000+0 0  9995
2 43633   0.0647 178.9775 0000437 126.7211 318.0706  1.00271207 24647
AT&T T-16               
1 44333U 19034A   25163.99210547 -.00000099  00000+0  00000+0 0  9995
2 44333   0.0307  73.5799 0000239 344.9706  99.2998  1.00271667 21937
INTELSAT 39 (IS-39)     
1 44476U 19049B   25163.87544752  .00000050  00000+0  00000+0 0  9990
2 44476   0.0233 352.7934 0000627 332.5471 313.2100  1.00269857 21425
GALAXY 30 (G-30)        
1 46114U 20056C   25164.55253160  .00000052  00000+0  00000+0 0  9999
2 46114   0.0143 333.3860 0002381 104.3120 258.3105  1.00271111 17597
GALAXY 33 (G-33)        
1 54026U 22128A   25164.48933551  .00000094  00000+0  00000+0 0  9999
2 54026   0.0168 355.2343 0002087  88.6404 221.3385  1.00270920 10046
GALAXY 34 (G-34)        
1 54027U 22128B   25164.55253160  .00000074  00000+0  00000+0 0  9997
2 54027   0.0185  10.5155 0001811  76.4740 245.0341  1.00271873 10076
GALAXY 31 (G-31)        
1 54243U 22153A   25164.54697644  .00000029  00000+0  00000+0 0  9993
2 54243   0.0137 357.9553 0000563  85.5323 254.5305  1.00269914  3434
GALAXY 32 (G-32)        
1 54244U 22153B   25164.53100506 -.00000159  00000+0  00000+0 0  9994
2 54244   0.0114  24.8364 0002280  20.7894 316.6312  1.00271616  9449
GALAXY 35 (G-35)        
1 54741U 22170A   25164.52544741 -.00000147  00000+0  00000+0 0  9994
2 54741   0.0179 308.3695 0002184 134.1702 275.6009  1.00271508  9199
GALAXY 36 (G-36)        
1 54742U 22170B   25164.53100506 -.00000170  00000+0  00000+0 0  9999
2 54742   0.0173  72.8840 0003109  17.5521 273.8210  1.00271659  9078
GALAXY 37 (G-37)        
1 57493U 23112A   25164.55253160  .00000063  00000+0  00000+0 0  9999
2 57493   0.0149  35.9923 0002233  46.8009 251.2341  1.00271159  6844
